     2.11           N: GPS NAV DATA                         RINEX VERSION / TYPE
CONVBIN 2.4.2                           20151216 120409 UTC PGM / RUN BY / DATE 
log: C:\work\RusBiTech\Mulino\GNSS_processing\20151106\B101_COMMENT             
format: Javad                                               COMMENT             
B110 VFBRC14490040                                          COMMENT             
    2.1420E-08 -7.4506E-09 -1.1921E-07  1.1921E-07          ION ALPHA           
    1.2902E+05 -4.9152E+04 -1.9661E+05  6.5536E+04          ION BETA            
    -.558793544769E-08 -.150990331349E-13    61440     1870 DELTA-UTC: A0,A1,T,W
    17                                                      LEAP SECONDS        
                                                            END OF HEADER       
 7 15 11  6 10  0  0.0  .481092836708E-03 -.102318153949E-11  .000000000000E+00
     .150000000000E+02 -.345625000000E+02  .451447376024E-08 -.721761073343E+00
    -.169686973095E-05  .901430228259E-02  .574998557568E-05  .515368898010E+04
     .468000000000E+06  .199303030968E-06 -.165093750271E+01  .614672899246E-07
     .968346900655E+00  .269937500000E+03 -.268465286136E+01 -.824962934446E-08
    -.241081470582E-09  .100000000000E+01  .186900000000E+04  .000000000000E+00
     .240000000000E+01  .000000000000E+00 -.111758708954E-07  .150000000000E+02
     .460800000000E+06  .000000000000E+00
 8 15 11  6 10  0  0.0 -.114580616355E-04 -.147792889038E-11  .000000000000E+00
     .900000000000E+02  .210000000000E+02  .486913139030E-08 -.273529561961E+01
     .121816992760E-05  .149001355749E-02  .553019344807E-05  .515359644890E+04
     .468000000000E+06  .633299350739E-07  .413879778725E+00  .298023223877E-07
     .961205145252E+00  .271750000000E+03 -.169733140412E+01 -.830463163553E-08
     .307155651409E-09  .100000000000E+01  .186900000000E+04  .000000000000E+00
     .240000000000E+01  .000000000000E+00  .465661287308E-08  .900000000000E+02
     .460860000000E+06  .000000000000E+00
13 15 11  6 10  0  0.0 -.162245705724E-03 -.284217094304E-11  .000000000000E+00
     .420000000000E+02  .528125000000E+02  .440732643998E-08  .174128690050E+00
     .267848372459E-05  .464450311847E-02  .532902777195E-05  .515368642807E+04
     .468000000000E+06 -.931322574615E-08 -.261088202073E+01 -.428408384323E-07
     .973137547748E+00  .282531250000E+03  .204071410126E+01 -.821391357104E-08
     .201079804352E-09  .100000000000E+01  .186900000000E+04  .000000000000E+00
     .240000000000E+01  .000000000000E+00 -.111758708954E-07  .420000000000E+02
     .460800000000E+06  .000000000000E+00
15 15 11  6  9 59 44.0 -.280714128166E-03 -.193267624127E-11  .000000000000E+00
     .200000000000E+02  .665312500000E+02  .526593363299E-08  .134995852623E+01
     .359117984772E-05  .770060322247E-02  .599212944508E-05  .515374845886E+04
     .467984000000E+06 -.372529029846E-07 -.277604940567E+01  .968575477600E-07
     .932448903965E+00  .249406250000E+03  .426150099205E+00 -.858785771874E-08
     .115004790411E-09  .100000000000E+01  .186900000000E+04  .000000000000E+00
     .240000000000E+01  .000000000000E+00 -.107102096081E-07  .200000000000E+02
     .460830000000E+06  .000000000000E+00
16 15 11  6 10  0  0.0 -.692233443260E-04  .363797880709E-11  .000000000000E+00
     .260000000000E+02  .110625000000E+02  .372122643259E-08  .309814559877E+01
     .599771738052E-06  .815521436743E-02  .106617808342E-04  .515365552711E+04
     .468000000000E+06 -.838190317154E-07 -.560068586979E+00 -.502914190292E-07
     .990877645780E+00  .190687500000E+03  .315416608631E+00 -.750638409960E-08
     .175721605224E-09  .100000000000E+01  .186900000000E+04  .000000000000E+00
     .240000000000E+01  .000000000000E+00 -.102445483208E-07  .260000000000E+02
     .460800000000E+06  .000000000000E+00
18 15 11  6 10  0  0.0  .450197141618E-03  .375166564481E-11  .000000000000E+00
     .290000000000E+02  .142187500000E+02  .496056377025E-08 -.262321019670E+01
     .722706317902E-06  .163591027958E-01  .105630606413E-04  .515364554596E+04
     .468000000000E+06  .134110450745E-06  .248780514424E+01 -.763684511185E-07
     .925110293917E+00  .154781250000E+03 -.193031665321E+01 -.789890044948E-08
     .350014579512E-10  .100000000000E+01  .186900000000E+04  .000000000000E+00
     .240000000000E+01  .000000000000E+00 -.111758708954E-07  .290000000000E+02
     .460800000000E+06  .000000000000E+00
20 15 11  6 10  0  0.0  .368867535144E-03  .295585778076E-11  .000000000000E+00
     .900000000000E+01 -.306250000000E+01  .512557064345E-08  .142324868416E+01
    -.283122062683E-06  .500984909013E-02  .107362866402E-04  .515366664124E+04
     .468000000000E+06 -.372529029846E-07  .243570946402E+01 -.912696123123E-07
     .926292058159E+00  .159875000000E+03  .126136801386E+01 -.831141763248E-08
    -.165006873199E-09  .100000000000E+01  .186900000000E+04  .000000000000E+00
     .240000000000E+01  .000000000000E+00 -.838190317154E-08  .900000000000E+01
     .460800000000E+06  .000000000000E+00
21 15 11  6 10  0  0.0 -.491661950946E-03 -.250111042988E-11  .000000000000E+00
     .170000000000E+02 -.459375000000E+02  .520985986872E-08 -.169329679163E+01
    -.223144888878E-05  .226487977197E-01  .605359673500E-05  .515372505951E+04
     .468000000000E+06  .454485416412E-06  .144482849449E+01  .262632966042E-06
     .934522346035E+00  .241843750000E+03 -.186423096013E+01 -.822069956799E-08
    -.276082928534E-09  .100000000000E+01  .186900000000E+04  .000000000000E+00
     .240000000000E+01  .000000000000E+00 -.116415321827E-07  .170000000000E+02
     .460890000000E+06  .000000000000E+00
22 15 11  6 10  0  0.0  .407887622714E-03  .341060513165E-11  .000000000000E+00
     .680000000000E+02  .169375000000E+02  .504699594192E-08 -.310945612211E+01
     .791624188423E-06  .798123679124E-02  .109858810902E-04  .515367929268E+04
     .468000000000E+06  .298023223877E-07  .248867631488E+01 -.149011611938E-07
     .922942209825E+00  .145593750000E+03 -.204565625254E+01 -.808462247126E-08
    -.107147320259E-11  .100000000000E+01  .186900000000E+04  .000000000000E+00
     .340000000000E+01  .000000000000E+00 -.176951289177E-07  .680000000000E+02
     .460830000000E+06  .000000000000E+00
26 15 11  6 10  0  0.0 -.111680477858E-03 -.148929757415E-10  .000000000000E+00
     .640000000000E+02  .968750000000E+01  .439446876155E-08 -.209491949952E+01
     .452622771263E-06  .309274182655E-03  .103171914816E-04  .515366427040E+04
     .468000000000E+06 -.167638063431E-07 -.632719269766E+00  .223517417908E-07
     .960747364538E+00  .183500000000E+03 -.290687400457E+00 -.795854579109E-08
     .116790579082E-09  .100000000000E+01  .186900000000E+04  .000000000000E+00
     .240000000000E+01  .000000000000E+00  .745058059692E-08  .640000000000E+02
     .460800000000E+06  .000000000000E+00
27 15 11  6 10  0  0.0  .336077064276E-04  .318323145621E-11  .000000000000E+00
     .550000000000E+02  .220937500000E+02  .468162357984E-08  .207441107333E+01
     .120885670185E-05  .273184780963E-02  .560283660889E-05  .515370336342E+04
     .468000000000E+06 -.745058059692E-07  .414959974029E+00  .651925802231E-07
     .969288933586E+00  .275125000000E+03  .289645198599E+00 -.821212778237E-08
     .301083969927E-09  .100000000000E+01  .186900000000E+04  .000000000000E+00
     .240000000000E+01  .000000000000E+00  .186264514923E-08  .550000000000E+02
     .460800000000E+06  .000000000000E+00
29 15 11  6 10  0  0.0  .643180217594E-03  .170530256582E-11  .000000000000E+00
     .620000000000E+02  .180000000000E+02  .448518682603E-08 -.165612863679E+01
     .948086380959E-06  .856894417666E-03  .532902777195E-05  .515366518784E+04
     .468000000000E+06 -.111758708954E-07  .473190388039E+00 -.987201929092E-07
     .975227402296E+00  .281406250000E+03 -.530427808367E+00 -.814391065514E-08
     .213223167315E-09  .100000000000E+01  .186900000000E+04  .000000000000E+00
     .240000000000E+01  .000000000000E+00 -.102445483208E-07  .620000000000E+02
     .460800000000E+06  .000000000000E+00
30 15 11  6 10  0  0.0  .527277588844E-04  .579802872380E-11  .000000000000E+00
     .430000000000E+02 -.419062500000E+02  .475019786481E-08 -.793783962391E+00
    -.222399830818E-05  .169302022550E-02  .578165054321E-05  .515367680359E+04
     .468000000000E+06  .465661287308E-07 -.160388511993E+01 -.465661287308E-07
     .954122240118E+00  .261843750000E+03 -.312868430919E+01 -.832070373357E-08
    -.244653047924E-09  .100000000000E+01  .186900000000E+04  .000000000000E+00
     .240000000000E+01  .000000000000E+00  .325962901115E-08  .430000000000E+02
     .461760000000E+06  .000000000000E+00
 8 15 11  6  9 59 44.0 -.114529393613E-04 -.147792889038E-11  .000000000000E+00
     .100000000000E+02  .210000000000E+02  .486948854803E-08 -.273764065681E+01
     .121816992760E-05  .149002124090E-02  .553019344807E-05  .515359645462E+04
     .467984000000E+06  .633299350739E-07  .413879920629E+00  .316649675369E-07
     .961205143790E+00  .271750000000E+03 -.169732025522E+01 -.830498879326E-08
     .307155651409E-09  .100000000000E+01  .186900000000E+04  .000000000000E+00
     .240000000000E+01  .000000000000E+00  .465661287308E-08  .100000000000E+02
     .465990000000E+06  .000000000000E+00
 4 15 11  6 10  0  0.0 -.425539910793E-04 -.545696821064E-11  .000000000000E+00
     .330000000000E+02 -.566250000000E+02  .534343686131E-08 -.260326060082E+00
    -.288151204586E-05  .120253547793E-01  .643357634544E-05  .515363840485E+04
     .468000000000E+06 -.335276126862E-07  .144644938871E+01  .147148966789E-06
     .940488415620E+00  .243687500000E+03  .111634593105E+01 -.871822029173E-08
    -.322156276245E-09  .100000000000E+01  .186900000000E+04  .000000000000E+00
     .240000000000E+01  .630000000000E+02 -.651925802231E-08  .330000000000E+02
     .466080000000E+06  .000000000000E+00
